NORAD_CAT_ID,OBJECT_NAME,OBJECT_TYPE,EPOCH,MEAN_MOTION,ECCENTRICITY,INCLINATION,RA_OF_ASC_NODE,ARG_OF_PERICENTER,MEAN_ANOMALY,BSTAR,MEAN_MOTION_DOT,MEAN_MOTION_DDOT,TLE_LINE0,TLE_LINE1,TLE_LINE2,SEMIMAJOR_AXIS,PERIOD,APOGEE,PERIGEE,DECAYED
52106.0,STARLINK-3670,PAYLOAD,2022-10-16 04:09:39,15.08859517,0.0001969,53.2178,258.0164,49.0942,311.022,0.00031948,4.803e-05,0.0,0 STARLINK-3670,1 52106U 22029U   22289.17336959  .00004803  00000-0  31948-3 0  9998,2 52106  53.2178 258.0164 0001969  49.0942 311.0220 15.08859517 33375,6917.821,95.436,541.048,538.3240000000002,0.0
52106.0,STARLINK-3670,PAYLOAD,2022-10-16 10:31:12,15.08842454,0.0001682,53.2176,256.8265,50.8048,309.3093,2.2843e-05,7.6e-07,0.0,0 STARLINK-3670,1 52106U 22029U   22289.43834140  .00000076  00000-0  22843-4 0  9995,2 52106  53.2176 256.8265 0001682  50.8048 309.3093 15.08842454 33415,6917.873000000001,95.437,540.901,538.5740000000002,0.0
52106.0,STARLINK-3670,PAYLOAD,2022-10-16 15:17:22,15.08833459,0.0002058,53.2181,255.935,51.282,308.8356,-0.00013811,-2.485e-05,0.0,0 STARLINK-3670,1 52106U 22029U   22289.63706674 -.00002485  00000-0 -13811-3 0  9999,2 52106  53.2181 255.9350 0002058  51.2820 308.8356 15.08833459 33441,6917.9,95.438,541.189,538.342,0.0
52106.0,STARLINK-3670,PAYLOAD,2022-10-17 04:00:27,15.08852088,0.0001974,53.2185,253.556,50.209,309.9076,-4.096899999999999e-05,-9.4e-06,0.0,0 STARLINK-3670,1 52106U 22029U   22290.16697929 -.00000940  00000-0 -40969-4 0  9990,2 52106  53.2185 253.5560 0001974  50.2090 309.9076 15.08852088 33525,6917.843000000003,95.437,541.0740000000002,538.3430000000002,0.0
52106.0,STARLINK-3670,PAYLOAD,2022-10-17 08:46:36,15.0884861,0.0002546999999999,53.2191,252.6637,47.6565,312.4643,-7.6643e-05,-1.508e-05,0.0,0 STARLINK-3670,1 52106U 22029U   22290.36570164 -.00001508  00000-0 -76643-4 0  9992,2 52106  53.2191 252.6637 0002547  47.6565 312.4643 15.08848610 33559,6917.854,95.437,541.481,537.957,0.0
52106.0,STARLINK-3670,PAYLOAD,2022-10-17 15:08:08,15.08845767,0.0001950999999999,53.2187,251.4737,52.7957,307.3213,-5.6465e-05,-1.187e-05,0.0,0 STARLINK-3670,1 52106U 22029U   22290.63065955 -.00001187  00000-0 -56465-4 0  9992,2 52106  53.2187 251.4737 0001951  52.7957 307.3213 15.08845767 33592,6917.863,95.437,541.077,538.378,0.0
52106.0,STARLINK-3670,PAYLOAD,2022-10-18 03:51:13,15.0884391,0.0001986999999999,53.2187,249.093,62.5266,297.5928,0.00011657,1.568e-05,0.0,0 STARLINK-3670,1 52106U 22029U   22291.16057606  .00001568  00000-0  11657-3 0  9999,2 52106  53.2187 249.0930 0001987  62.5266 297.5928 15.08843910 33671,6917.868,95.437,541.1080000000002,538.359,0.0
52106.0,STARLINK-3670,PAYLOAD,2022-10-19 03:42:01,15.08839015,0.0001809,53.2184,244.6333,58.9681,301.1488,1.3411e-05,-7.5e-07,0.0,0 STARLINK-3670,1 52106U 22029U   22292.15418446 -.00000075  00000-0  13411-4 0  9996,2 52106  53.2184 244.6333 0001809  58.9681 301.1488 15.08839015 33820,6917.8830000000025,95.438,541.0,538.497,0.0
52106.0,STARLINK-3670,PAYLOAD,2022-10-20 03:32:48,15.08849579,0.0001881,53.2188,240.1767,48.4989,311.6164,-4.098e-05,-9.41e-06,0.0,0 STARLINK-3670,1 52106U 22029U   22293.14777960 -.00000941  00000-0 -40980-4 0  9999,2 52106  53.2188 240.1767 0001881  48.4989 311.6164 15.08849579 33970,6917.851,95.437,541.0169999999998,538.415,0.0
52106.0,STARLINK-3670,PAYLOAD,2022-10-20 21:02:02,15.08842317,0.0001678,53.2197,236.906,61.9269,298.1893,6.516e-05,7.49e-06,0.0,0 STARLINK-3670,1 52106U 22029U   22293.87641983  .00000749  00000-0  65160-4 0  9995,2 52106  53.2197 236.9060 0001678  61.9269 298.1893 15.08842317 34088,6917.873000000001,95.437,540.899,538.577,0.0
52106.0,STARLINK-3670,PAYLOAD,2022-10-21 03:23:35,15.08834477,0.0001535,53.219,235.7154,55.7593,304.3544,-1.503e-05,-5.27e-06,0.0,0 STARLINK-3670,1 52106U 22029U   22294.14138729 -.00000527  00000-0 -15030-4 0  9992,2 52106  53.2190 235.7154 0001535  55.7593 304.3544 15.08834477 34121,6917.897,95.438,540.8240000000002,538.7,0.0
52106.0,STARLINK-3670,PAYLOAD,2022-10-22 04:49:45,15.08841349,0.0001624,53.2187,230.9573,46.7393,313.3735,-2.5595e-05,-6.95e-06,0.0,0 STARLINK-3670,1 52106U 22029U   22295.20122468 -.00000695  00000-0 -25595-4 0  9996,2 52106  53.2187 230.9573 0001624  46.7393 313.3735 15.08841349 34281,6917.876,95.437,540.865,538.618,0.0
52106.0,STARLINK-3670,PAYLOAD,2022-10-23 06:15:55,15.08846954,0.0001716,53.2186,226.199,45.3901,314.7231,0.00014241,1.98e-05,0.0,0 STARLINK-3670,1 52106U 22029U   22296.26105562  .00001980  00000-0  14241-3 0  9990,2 52106  53.2186 226.1990 0001716  45.3901 314.7231 15.08846954 34443,6917.859,95.437,540.911,538.5369999999998,0.0
52106.0,STARLINK-3670,PAYLOAD,2022-10-23 12:37:26,15.08855716,0.000165,53.2187,225.0104,47.499,312.6141,0.00020417,2.964e-05,0.0,0 STARLINK-3670,1 52106U 22029U   22296.52600642  .00002964  00000-0  20417-3 0  9993,2 52106  53.2187 225.0104 0001650  47.4990 312.6141 15.08855716 34484,6917.831999999999,95.437,540.839,538.556,0.0
52106.0,STARLINK-3670,PAYLOAD,2022-10-24 04:31:18,15.08851775,0.0001783,53.2183,222.0384,49.5938,310.521,0.00011853,1.599e-05,0.0,0 STARLINK-3670,1 52106U 22029U   22297.18840760  .00001599  00000-0  11853-3 0  9990,2 52106  53.2183 222.0384 0001783  49.5938 310.5210 15.08851775 34585,6917.844,95.437,540.943,538.476,0.0
52106.0,STARLINK-3670,PAYLOAD,2022-10-25 02:46:44,15.08830962,0.0001841999999999,53.2191,217.8729,55.53,304.5866,-0.00013252,-2.396e-05,0.0,0 STARLINK-3670,1 52106U 22029U   22298.11579459 -.00002396  00000-0 -13252-3 0  9991,2 52106  53.2191 217.8729 0001842  55.5300 304.5866 15.08830962 34726,6917.908,95.438,541.047,538.499,0.0
52106.0,STARLINK-3670,PAYLOAD,2022-10-25 04:22:07,15.08833231,0.0001761999999999,53.2191,217.5761,55.312,304.8038,-0.00013151,-2.380000000000001e-05,0.0,0 STARLINK-3670,1 52106U 22029U   22298.18203399 -.00002380  00000-0 -13151-3 0  9996,2 52106  53.2191 217.5761 0001762  55.3120 304.8038 15.08833231 34735,6917.901,95.438,540.985,538.547,0.0
52106.0,STARLINK-3670,PAYLOAD,2022-10-25 12:19:03,15.08836853,0.0001863,53.2193,216.0894,54.2707,305.8458,-8.544e-05,-1.648e-05,0.0,0 STARLINK-3670,1 52106U 22029U   22298.51323132 -.00001648  00000-0 -85440-4 0  9998,2 52106  53.2193 216.0894 0001863  54.2707 305.8458 15.08836853 34784,6917.89,95.438,541.044,538.466,0.0
52106.0,STARLINK-3670,PAYLOAD,2022-10-26 04:12:55,15.08829299,0.0001781,53.219,213.1161,61.8352,298.282,-8.4586e-05,-1.634e-05,0.0,0 STARLINK-3670,1 52106U 22029U   22299.17563927 -.00001634  00000-0 -84586-4 0  9994,2 52106  53.2190 213.1161 0001781  61.8352 298.2820 15.08829299 34880,6917.913000000001,95.438,541.01,538.5459999999998,0.0
52106.0,STARLINK-3670,PAYLOAD,2022-10-27 04:03:42,15.08840244,0.0001859,53.2189,208.6562,54.4775,305.6391,0.0002384,3.508e-05,0.0,0 STARLINK-3670,1 52106U 22029U   22300.16923654  .00003508  00000-0  23840-3 0  9998,2 52106  53.2189 208.6562 0001859  54.4775 305.6391 15.08840244 35032,6917.88,95.438,541.031,538.4590000000002,0.0
52106.0,STARLINK-3670,PAYLOAD,2022-10-28 10:16:00,15.08859485,0.0001868,53.2179,203.0062,52.5303,307.5859,0.00035777,5.413e-05,0.0,0 STARLINK-3670,1 52106U 22029U   22301.42778678  .00005413  00000-0  35777-3 0  9991,2 52106  53.2179 203.0062 0001868  52.5303 307.5859 15.08859485 35229,6917.821,95.436,540.9780000000002,538.394,0.0
52106.0,STARLINK-3670,PAYLOAD,2022-10-29 03:45:14,15.08854659,0.0001816,53.2192,199.7359,82.2717,277.8481,9.2894e-06,-1.4e-06,0.0,0 STARLINK-3670,1 52106U 22029U   22302.15642020 -.00000140  00000-0  92894-5 0  9991,2 52106  53.2192 199.7359 0001816  82.2717 277.8481 15.08854659 35336,6917.8359999999975,95.437,540.957,538.444,0.0
52106.0,STARLINK-3670,PAYLOAD,2022-10-29 05:20:37,15.08856275,0.0001831,53.2183,199.4383,61.3252,298.7925,5.8608e-05,6.45e-06,0.0,0 STARLINK-3670,1 52106U 22029U   22302.22265915  .00000645  00000-0  58608-4 0  9996,2 52106  53.2183 199.4383 0001831  61.3252 298.7925 15.08856275 35341,6917.831,95.437,540.962,538.429,0.0
52106.0,STARLINK-3670,PAYLOAD,2022-10-29 21:14:29,15.08837081,0.0001954,53.2167,196.4656,55.9304,304.1873,-0.00023407,-4.011e-05,0.0,0 STARLINK-3670,1 52106U 22029U   22302.88506759 -.00004011  00000-0 -23407-3 0  9993,2 52106  53.2167 196.4656 0001954  55.9304 304.1873 15.08837081 35445,6917.889,95.438,541.106,538.403,0.0
52106.0,STARLINK-3670,PAYLOAD,2022-10-30 09:57:34,15.088498199999998,0.0001761,53.2178,194.0865,55.4979,304.6179,4.5153e-05,4.31e-06,0.0,0 STARLINK-3670,1 52106U 22029U   22303.41498006  .00000431  00000-0  45153-4 0  9991,2 52106  53.2178 194.0865 0001761  55.4979 304.6179 15.08849820 35529,6917.85,95.437,540.934,538.497,0.0
52106.0,STARLINK-3670,PAYLOAD,2022-10-30 21:05:16,15.08843026,0.0001857,53.2178,192.0047,51.787,308.3289,0.00010846,1.439e-05,0.0,0 STARLINK-3670,1 52106U 22029U   22303.87866432  .00001439  00000-0  10846-3 0  9992,2 52106  53.2178 192.0047 0001857  51.7870 308.3289 15.08843026 35596,6917.871,95.437,541.021,538.451,0.0
52106.0,STARLINK-3670,PAYLOAD,2022-10-31 09:48:22,15.08821059,0.0001751999999999,53.2168,189.6261,50.1857,309.9289,-0.00022973,-3.94e-05,0.0,0 STARLINK-3670,1 52106U 22029U   22304.40859545 -.00003940  00000-0 -22973-3 0  9994,2 52106  53.2168 189.6261 0001752  50.1857 309.9289 15.08821059 35675,6917.938,95.439,541.015,538.591,0.0
52106.0,STARLINK-3670,PAYLOAD,2022-10-31 16:09:55,15.0882426,0.0001973,53.2175,188.4368,49.8046,310.3119,-9.8485e-05,-1.855e-05,0.0,0 STARLINK-3670,1 52106U 22029U   22304.67355963 -.00001855  00000-0 -98485-4 0  9993,2 52106  53.2175 188.4368 0001973  49.8046 310.3119 15.08824260 35718,6917.929,95.439,541.158,538.429,0.0
52106.0,STARLINK-3670,PAYLOAD,2022-11-01 01:42:14,15.08834375,0.0001836,53.2184,186.6528,49.9215,310.1938,8.2159e-05,1.02e-05,0.0,0 STARLINK-3670,1 52106U 22029U   22305.07099900  .00001020  00000-0  82159-4 0  9997,2 52106  53.2184 186.6528 0001836  49.9215 310.1938 15.08834375 35774,6917.898,95.438,541.033,538.492,0.0
